HELIOS 2A               
1 28492U 04049A   24200.21439055  .00005362  00000+0  45999-3 0  9993
2 28492  98.3222 195.7121 0015078  95.2170 265.0771 14.97880986 48947
SPIRALE A               
1 33751U 09008C   24200.08351401  .00001714  00000+0  18047-2 0  9990
2 33751   2.0289 244.9042 5546498 265.6709  32.5581  4.59757764229734
SPIRALE B               
1 33752U 09008D   24199.22928656  .00009798  00000+0  18135-2 0  9994
2 33752   2.0581  54.5877 6781874 269.7600  18.6291  2.93795885147033
SAPPHIRE                
1 39088U 13009C   24200.10688999  .00000444  00000+0  17163-3 0  9991
2 39088  98.4111  26.0840 0011584 164.8907 195.2627 14.34727091596334
